NORAD_CAT_ID,OBJECT_NAME,OBJECT_TYPE,EPOCH,MEAN_MOTION,ECCENTRICITY,INCLINATION,RA_OF_ASC_NODE,ARG_OF_PERICENTER,MEAN_ANOMALY,BSTAR,MEAN_MOTION_DOT,MEAN_MOTION_DDOT,TLE_LINE0,TLE_LINE1,TLE_LINE2,SEMIMAJOR_AXIS,PERIOD,APOGEE,PERIGEE,DECAYED
54081.0,STARLINK-5165,PAYLOAD,2024-02-03 15:10:27,15.08842677,0.0001567,53.2176,168.7915,76.6388,283.4779,5.4291e-05,5.76e-06,0.0,0 STARLINK-5165,1 54081U 22136AG  24034.63226031  .00000576  00000-0  54291-4 0  9991,2 54081  53.2176 168.7915 0001567  76.6388 283.4779 15.08842677 71969,6917.872,95.437,540.821,538.653,0.0
54081.0,STARLINK-5165,PAYLOAD,2024-02-04 13:25:50,15.08837996,0.0001434,53.2173,164.6278,87.284,272.8316,0.00017058,2.428e-05,0.0,0 STARLINK-5165,1 54081U 22136AG  24035.55961712  .00002428  00000-0  17058-3 0  9992,2 54081  53.2173 164.6278 0001434  87.2840 272.8316 15.08837996 71627,6917.887,95.438,540.744,538.759,0.0
54081.0,STARLINK-5165,PAYLOAD,2024-02-04 18:11:59,15.08851847,0.0001364,53.217,163.7343,94.3924,265.7224,0.00010508,1.385e-05,0.0,0 STARLINK-5165,1 54081U 22136AG  24035.75832968  .00001385  00000-0  10508-3 0  9998,2 54081  53.2170 163.7343 0001364  94.3924 265.7224 15.08851847 72138,6917.844,95.437,540.653,538.766,0.0
54081.0,STARLINK-5165,PAYLOAD,2024-02-05 11:41:15,15.08836017,0.0001477,53.2153,160.4606,113.0114,247.1034,-5.9543e-06,-3.83e-06,0.0,0 STARLINK-5165,1 54081U 22136AG  24036.48698266 -.00000383  00000-0 -59543-5 0  9993,2 54081  53.2153 160.4606 0001477 113.0114 247.1034 15.08836017 72247,6917.893,95.438,540.779,538.736,0.0
54081.0,STARLINK-5165,PAYLOAD,2024-02-05 14:52:01,15.08836236,0.0001388,53.2172,159.8695,87.453,272.6621,2.0851e-05,4.4e-07,0.0,0 STARLINK-5165,1 54081U 22136AG  24036.61946396  .00000044  00000-0  20851-4 0  9999,2 54081  53.2172 159.8695 0001388  87.4530 272.6621 15.08836236 71781,6917.892,95.438,540.717,538.797,0.0
54081.0,STARLINK-5165,PAYLOAD,2024-02-06 11:32:01,15.08847116,0.0001384,53.2165,156.0045,85.7416,274.3734,0.00011556,1.552e-05,0.0,0 STARLINK-5165,1 54081U 22136AG  24037.48057661  .00001552  00000-0  11556-3 0  9999,2 54081  53.2165 156.0045 0001384  85.7416 274.3734 15.08847116 72392,6917.859,95.437,540.681,538.766,0.0
54081.0,STARLINK-5165,PAYLOAD,2024-02-06 13:07:24,15.08849674,0.0001437,53.2165,155.707,87.0503,273.0654,0.00014267,1.984e-05,0.0,0 STARLINK-5165,1 54081U 22136AG  24037.54681467  .00001984  00000-0  14267-3 0  9994,2 54081  53.2165 155.7070 0001437  87.0503 273.0654 15.08849674 71923,6917.851,95.437,540.71,538.722,0.0
54081.0,STARLINK-5165,PAYLOAD,2024-02-06 14:42:47,15.0885412,0.000141,53.2158,155.4092,92.8569,267.2585,0.00020336,2.951e-05,0.0,0 STARLINK-5165,1 54081U 22136AG  24037.61305469  .00002951  00000-0  20336-3 0  9996,2 54081  53.2158 155.4092 0001410  92.8569 267.2585 15.08854120 71934,6917.837,95.437,540.678,538.727,0.0
54081.0,STARLINK-5165,PAYLOAD,2024-02-07 12:58:12,15.08841829,0.0001889,53.2173,151.247,117.6014,242.517,0.00013818,1.912e-05,0.0,0 STARLINK-5165,1 54081U 22136AG  24038.54042104  .00001912  00000-0  13818-3 0  9996,2 54081  53.2173 151.2470 0001889 117.6014 242.5170 15.08841829 72553,6917.875,95.437,541.047,538.433,0.0
54081.0,STARLINK-5165,PAYLOAD,2024-02-07 14:33:35,15.08842641,0.0001428,53.216,150.9519,100.7545,259.3608,0.00014533,2.026e-05,0.0,0 STARLINK-5165,1 54081U 22136AG  24038.60666209  .00002026  00000-0  14533-3 0  9993,2 54081  53.2160 150.9519 0001428 100.7545 259.3608 15.08842641 72083,6917.872,95.437,540.725,538.749,0.0
54081.0,STARLINK-5165,PAYLOAD,2024-02-08 11:13:15,15.09255118,0.0003552,53.2168,147.0865,131.436,228.6938,0.0064004,0.00104272,0.0,0 STARLINK-5165,1 54081U 22136AG  24039.46754535  .00104272  00000-0  64004-2 0  9991,2 54081  53.2168 147.0865 0003552 131.4360 228.6938 15.09255118 72698,6916.612,95.411,540.934,536.02,0.0
54081.0,STARLINK-5165,PAYLOAD,2024-02-08 14:23:53,15.09377379,0.0001883,53.2164,146.486,146.6272,213.4839,0.0079709,0.00130848,0.0,0 STARLINK-5165,1 54081U 22136AG  24039.59992935  .00130848  00000-0  79709-2 0  9999,2 54081  53.2164 146.4860 0001883 146.6272 213.4839 15.09377379 72233,6916.238,95.404,539.406,536.801,0.0
54081.0,STARLINK-5165,PAYLOAD,2024-02-08 19:09:53,15.09503812,0.0001595,53.2164,145.5944,96.9031,263.2143,0.0091394,0.00151024,0.0,0 STARLINK-5165,1 54081U 22136AG  24039.79853423  .00151024  00000-0  91394-2 0  9992,2 54081  53.2164 145.5944 0001595  96.9031 263.2143 15.09503812 72263,6915.852,95.396,538.82,536.614,0.0
54081.0,STARLINK-5165,PAYLOAD,2024-02-09 14:00:01,15.10461247,0.0001094,53.2152,142.0651,97.5679,211.6751,-1.7042e-05,-5.76e-06,0.0,0 STARLINK-5165,1 54081U 22136AG  24040.58334491 -.00000576  00000-0 -17042-4 0  9997,2 54081  53.2152 142.0651 0001094  97.5679 211.6751 15.10461247 72861,6912.929,95.335,535.551,534.038,0.0
54081.0,STARLINK-5165,PAYLOAD,2024-02-10 14:00:01,15.10491645,0.000116,53.215,137.565,77.1819,272.6908,-0.0024788,-0.00041339,0.0,0 STARLINK-5165,1 54081U 22136AG  24041.58334491 -.00041339  00000-0 -24788-2 0  9993,2 54081  53.2150 137.5650 0001160  77.1819 272.6908 15.10491645  5830,6912.837,95.333,535.503,533.9,0.0
54081.0,STARLINK-5165,PAYLOAD,2024-02-10 22:00:01,15.10485151,0.0001099,53.2148,136.0638,79.6803,283.8217,0.00013118,1.892e-05,0.0,0 STARLINK-5165,1 54081U 22136AG  24041.91668981  .00001892  00000-0  13118-3 0  9998,2 54081  53.2148 136.0638 0001099  79.6803 283.8217 15.10485151 73060,6912.856,95.334,535.481,533.962,0.0
54081.0,STARLINK-5165,PAYLOAD,2024-02-11 14:00:01,15.10527436,0.00012,53.2149,133.0643,83.9979,306.5955,-0.0063133,-0.00104027,0.0,0 STARLINK-5165,1 54081U 22136AG  24042.58334491 -.00104027  00000-0 -63133-2 0  9995,2 54081  53.2149 133.0643 0001200  83.9979 306.5955 15.10527436  5880,6912.727,95.331,535.422,533.763,0.0
54081.0,STARLINK-5165,PAYLOAD,2024-02-11 22:00:01,15.10471792,0.0001156,53.2148,131.5628,93.8286,310.4331,0.00095214,0.00015591,0.0,0 STARLINK-5165,1 54081U 22136AG  24042.91668981  .00015591  00000-0  95214-3 0  9997,2 54081  53.2148 131.5628 0001156  93.8286 310.4331 15.10471792  5836,6912.897,95.334,535.561,533.963,0.0
54081.0,STARLINK-5165,PAYLOAD,2024-02-12 06:00:02,15.10488473,0.0001291,53.2149,130.0618,97.6219,320.1923,0.0031365,0.00052325,0.0,0 STARLINK-5165,1 54081U 22136AG  24043.25002315  .00052325  00000-0  31365-2 0  9990,2 54081  53.2149 130.0618 0001291  97.6219 320.1923 15.10488473 73269,6912.846,95.333,535.604,533.819,0.0
54081.0,STARLINK-5165,PAYLOAD,2024-02-12 14:00:01,15.10521512,0.000151,53.2149,128.5633,81.0242,350.3226,-0.0080765,-0.00132455,0.0,0 STARLINK-5165,1 54081U 22136AG  24043.58334491 -.00132455  00000-0 -80765-2 0  9992,2 54081  53.2149 128.5633 0001510  81.0242 350.3226 15.10521512 73314,6912.745,95.331,535.654,533.567,0.0
54081.0,STARLINK-5165,PAYLOAD,2024-02-12 22:00:00,15.10438934,0.0001602,53.215,127.0619,80.6038,4.3018,0.0007148,0.00011614,0.0,0 STARLINK-5165,1 54081U 22136AG  24043.91667824  .00011614  00000-0  71480-3 0  9994,2 54081  53.2150 127.0619 0001602  80.6038   4.3018 15.10438934 73370,6912.997,95.337,535.97,533.755,0.0
54081.0,STARLINK-5165,PAYLOAD,2024-02-13 13:30:24,15.10483676,0.0001422,53.2152,124.1539,87.771,272.3446,1.3601e-05,-6.6e-07,0.0,0 STARLINK-5165,1 54081U 22136AG  24044.56278157 -.00000066  00000-0  13601-4 0  9995,2 54081  53.2152 124.1539 0001422  87.7710 272.3446 15.10483676 72987,6912.861,95.334,535.709,533.743,0.0
54081.0,STARLINK-5165,PAYLOAD,2024-02-13 16:40:58,15.10487506,0.0001474,53.215,123.5584,85.8092,274.3069,0.00017906,2.69e-05,0.0,0 STARLINK-5165,1 54081U 22136AG  24044.69511625  .00002690  00000-0  17906-3 0  9994,2 54081  53.2150 123.5584 0001474  85.8092 274.3069 15.10487506 73482,6912.849,95.333,535.733,533.695,0.0
54081.0,STARLINK-5165,PAYLOAD,2024-02-14 05:23:14,15.10475646,0.0001585,53.215,121.1754,83.7111,276.4063,0.00023449,3.613e-05,0.0,0 STARLINK-5165,1 54081U 22136AG  24045.22446970  .00003613  00000-0  23449-3 0  9999,2 54081  53.2150 121.1754 0001585  83.7111 276.4063 15.10475646 73565,6912.885,95.334,535.846,533.655,0.0
54081.0,STARLINK-5165,PAYLOAD,2024-02-14 11:44:21,15.10486036,0.0001646,53.2152,119.9843,90.2811,269.837,0.00035806,5.675e-05,0.0,0 STARLINK-5165,1 54081U 22136AG  24045.48913776  .00005675  00000-0  35806-3 0  9990,2 54081  53.2152 119.9843 0001646  90.2811 269.8370 15.10486036 73123,6912.854,95.334,535.857,533.581,0.0
54081.0,STARLINK-5165,PAYLOAD,2024-02-14 21:16:03,15.10477973,0.0001869,53.215,118.1973,88.1273,271.9934,0.00033446,5.28e-05,0.0,0 STARLINK-5165,1 54081U 22136AG  24045.88615219  .00005280  00000-0  33446-3 0  9995,2 54081  53.2150 118.1973 0001869  88.1273 271.9934 15.10477973 73187,6912.878,95.334,536.035,533.451,0.0
54081.0,STARLINK-5165,PAYLOAD,2024-02-15 11:33:36,15.10488925,0.0001859,53.2152,115.5174,96.0523,264.0681,0.0012239,0.00020148,0.0,0 STARLINK-5165,1 54081U 22136AG  24046.48166706  .00020148  00000-0  12239-2 0  9990,2 54081  53.2152 115.5174 0001859  96.0523 264.0681 15.10488925 73279,6912.845,95.333,535.995,533.425,0.0
54081.0,STARLINK-5165,PAYLOAD,2024-02-15 21:05:17,15.10488526,0.0001803,53.2151,113.7305,94.4705,265.6494,0.0012058,0.00019844,0.0,0 STARLINK-5165,1 54081U 22136AG  24046.87867718  .00019844  00000-0  12058-2 0  9994,2 54081  53.2151 113.7305 0001803  94.4705 265.6494 15.10488526 73330,6912.846,95.333,535.957,533.465,0.0
54081.0,STARLINK-5165,PAYLOAD,2024-02-16 05:01:42,15.10483296,0.000212,53.2164,112.2452,107.1624,252.9601,0.00081526,0.00013308,0.0,0 STARLINK-5165,1 54081U 22136AG  24047.20951921  .00013308  00000-0  81526-3 0  9998,2 54081  53.2164 112.2452 0002120 107.1624 252.9601 15.10483296 73862,6912.862,95.334,536.193,533.262,0.0
54081.0,STARLINK-5165,PAYLOAD,2024-02-16 11:22:50,15.10484353,0.0001938,53.2167,111.0539,105.37,254.7507,0.00037101,5.89e-05,0.0,0 STARLINK-5165,1 54081U 22136AG  24047.47418999  .00005890  00000-0  37101-3 0  9997,2 54081  53.2167 111.0539 0001938 105.3700 254.7507 15.10484353 73421,6912.859,95.334,536.064,533.384,0.0
